NORAD_CAT_ID,OBJECT_NAME,OBJECT_TYPE,EPOCH,MEAN_MOTION,ECCENTRICITY,INCLINATION,RA_OF_ASC_NODE,ARG_OF_PERICENTER,MEAN_ANOMALY,BSTAR,MEAN_MOTION_DOT,MEAN_MOTION_DDOT,TLE_LINE0,TLE_LINE1,TLE_LINE2,SEMIMAJOR_AXIS,PERIOD,APOGEE,PERIGEE,DECAYED
53823.0,STARLINK-4748,PAYLOAD,2024-06-21 04:47:19,15.08836603,0.0001377,53.2156,191.5286,90.3815,269.7335,3.5365e-05,2.75e-06,0.0,0 STARLINK-4748,1 53823U 22114F   24173.19952915  .00000275  00000-0  35365-4 0  9999,2 53823  53.2156 191.5286 0001377  90.3815 269.7335 15.08836603 98340,6917.891,95.438,540.708,538.803,0.0
53823.0,STARLINK-4748,PAYLOAD,2024-06-21 11:08:52,15.08835103,0.0001363,53.2158,190.3397,88.5605,271.5543,-3.9209e-06,-3.5e-06,0.0,0 STARLINK-4748,1 53823U 22114F   24173.46449201 -.00000350  00000-0 -39209-5 0  9996,2 53823  53.2158 190.3397 0001363  88.5605 271.5543 15.08835103 98923,6917.895,95.438,540.703,538.817,0.0
53823.0,STARLINK-4748,PAYLOAD,2024-06-22 06:13:29,15.08838646,0.0001356,53.216,186.7713,87.7749,272.3399,2.7956e-05,1.57e-06,0.0,0 STARLINK-4748,1 53823U 22114F   24174.25936970  .00000157  00000-0  27956-4 0  9996,2 53823  53.2160 186.7713 0001356  87.7749 272.3399 15.08838646 98506,6917.885,95.438,540.688,538.811,0.0
53823.0,STARLINK-4748,PAYLOAD,2024-06-23 07:39:40,15.08833182,0.0001324,53.2157,182.0143,98.3392,261.775,4.4825e-05,4.25e-06,0.0,0 STARLINK-4748,1 53823U 22114F   24175.31921441  .00000425  00000-0  44825-4 0  9993,2 53823  53.2157 182.0143 0001324  98.3392 261.7750 15.08833182 98665,6917.901,95.438,540.682,538.85,0.0
53823.0,STARLINK-4748,PAYLOAD,2024-06-24 05:55:03,15.08839494,0.0001316,53.2157,177.8508,97.2617,262.8525,4.8855e-05,4.9e-06,0.0,0 STARLINK-4748,1 53823U 22114F   24176.24657237  .00000490  00000-0  48855-4 0  9994,2 53823  53.2157 177.8508 0001316  97.2617 262.8525 15.08839494 99341,6917.882,95.438,540.657,538.837,0.0
53823.0,STARLINK-4748,PAYLOAD,2024-06-25 07:21:14,15.08838464,0.0001298,53.2155,173.0927,95.0156,265.0985,6.7788e-05,7.91e-06,0.0,0 STARLINK-4748,1 53823U 22114F   24177.30641311  .00000791  00000-0  67788-4 0  9998,2 53823  53.2155 173.0927 0001298  95.0156 265.0985 15.08838464 98963,6917.885,95.438,540.648,538.852,0.0
53823.0,STARLINK-4748,PAYLOAD,2024-06-26 07:12:00,15.08843857,0.0001368,53.2158,168.6308,90.3604,269.7545,5.908e-05,6.53e-06,0.0,0 STARLINK-4748,1 53823U 22114F   24178.30001013  .00000653  00000-0  59080-4 0  9991,2 53823  53.2158 168.6308 0001368  90.3604 269.7545 15.08843857 99655,6917.869,95.437,540.68,538.787,0.0
53823.0,STARLINK-4748,PAYLOAD,2024-06-27 05:27:24,15.08841187,0.000137,53.2156,164.4691,90.9235,269.1914,5.274e-05,5.52e-06,0.0,0 STARLINK-4748,1 53823U 22114F   24179.22737159  .00000552  00000-0  52740-4 0  9994,2 53823  53.2156 164.4691 0001370  90.9235 269.1914 15.08841187 99255,6917.877,95.437,540.69,538.794,0.0
53823.0,STARLINK-4748,PAYLOAD,2024-06-27 16:35:06,15.08844078,0.000137,53.2157,162.3874,91.7082,268.4067,6.2666e-05,7.1e-06,0.0,0 STARLINK-4748,1 53823U 22114F   24179.69104890  .00000710  00000-0  62666-4 0  9999,2 53823  53.2157 162.3874 0001370  91.7082 268.4067 15.08844078 99865,6917.868,95.437,540.681,538.785,0.0
53823.0,STARLINK-4748,PAYLOAD,2024-06-28 05:18:11,15.08841368,0.0001428,53.216,160.0084,96.53,263.5854,4.3773e-05,4.09e-06,0.0,0 STARLINK-4748,1 53823U 22114F   24180.22097093  .00000409  00000-0  43773-4 0  9999,2 53823  53.2160 160.0084 0001428  96.5300 263.5854 15.08841368 99945,6917.876,95.437,540.729,538.753,0.0
53823.0,STARLINK-4748,PAYLOAD,2024-06-29 05:08:58,15.08846152,0.0001232,53.215,155.5499,91.3319,268.7814,8.3336e-05,1.039e-05,0.0,0 STARLINK-4748,1 53823U 22114F   24181.21456585  .00001039  00000-0  83336-4 0  9993,2 53823  53.2150 155.5499 0001232  91.3319 268.7814 15.08846152 99555,6917.862,95.437,540.579,538.874,0.0
53823.0,STARLINK-4748,PAYLOAD,2024-06-29 08:19:44,15.08844976,0.0001194,53.2148,154.9545,104.3149,255.7976,0.00014555,2.03e-05,0.0,0 STARLINK-4748,1 53823U 22114F   24181.34704395  .00002030  00000-0  14555-3 0  9990,2 53823  53.2148 154.9545 0001194 104.3149 255.7976 15.08844976100112,6917.865,95.437,540.556,538.904,0.0
53823.0,STARLINK-4748,PAYLOAD,2024-06-30 04:59:46,15.08829858,0.0001244,53.2149,151.0846,84.9258,275.1876,-4.9683e-05,-1.078e-05,0.0,0 STARLINK-4748,1 53823U 22114F   24182.20818136 -.00001078  00000-0 -49683-4 0  9999,2 53823  53.2149 151.0846 0001244  84.9258 275.1876 15.08829858 99704,6917.911,95.438,540.637,538.916,0.0
53823.0,STARLINK-4748,PAYLOAD,2024-06-30 14:32:05,15.08835958,0.0001252,53.2157,149.2994,79.7073,280.406,-2.4421e-06,-3.27e-06,0.0,0 STARLINK-4748,1 53823U 22114F   24182.60561741 -.00000327  00000-0 -24421-5 0  9990,2 53823  53.2157 149.2994 0001252  79.7073 280.4060 15.08835958100303,6917.893,95.438,540.624,538.892,0.0
53823.0,STARLINK-4748,PAYLOAD,2024-07-01 14:22:52,15.08815169,0.0001304,53.2178,144.8443,99.2577,260.8562,0.00049472,7.589e-05,0.0,0 STARLINK-4748,1 53823U 22114F   24183.59922393  .00007589  00000-0  49472-3 0  9999,2 53823  53.2178 144.8443 0001304  99.2577 260.8562 15.08815169100457,6917.956,95.439,540.723,538.919,0.0
53823.0,STARLINK-4748,PAYLOAD,2024-07-02 04:41:20,15.08836472,0.0001198,53.2154,142.1683,113.071,247.0408,0.00014593,2.035e-05,0.0,0 STARLINK-4748,1 53823U 22114F   24184.19537941  .00002035  00000-0  14593-3 0  9994,2 53823  53.2154 142.1683 0001198 113.0710 247.0408 15.08836472100000,6917.891,95.438,540.585,538.927,0.0
53823.0,STARLINK-4748,PAYLOAD,2024-07-02 14:13:39,15.08844213,0.0001186,53.2152,140.3805,78.4195,281.693,0.00015964,2.254e-05,0.0,0 STARLINK-4748,1 53823U 22114F   24184.59281529  .00002254  00000-0  15964-3 0  9992,2 53823  53.2152 140.3805 0001186  78.4195 281.6930 15.08844213100604,6917.868,95.437,540.553,538.912,0.0
53823.0,STARLINK-4748,PAYLOAD,2024-07-02 20:35:12,15.08841709,0.0001692,53.214,139.1948,86.777,273.3416,0.00016047,2.267e-05,0.0,0 STARLINK-4748,1 53823U 22114F   24184.85777889  .00002267  00000-0  16047-3 0  9997,2 53823  53.2140 139.1948 0001692  86.7770 273.3416 15.08841709100646,6917.875,95.437,540.911,538.57,0.0
53823.0,STARLINK-4748,PAYLOAD,2024-07-03 02:56:45,15.08833259,0.0001409,53.2159,138.0051,87.348,272.7673,3.0913e-05,2.04e-06,0.0,0 STARLINK-4748,1 53823U 22114F   24185.12274827  .00000204  00000-0  30913-4 0  9990,2 53823  53.2159 138.0051 0001409  87.3480 272.7673 15.08833259100144,6917.901,95.438,540.741,538.791,0.0
53823.0,STARLINK-4748,PAYLOAD,2024-07-03 06:07:30,15.08844331,0.0001228,53.2161,137.4083,91.7573,268.356,6.1378e-05,6.89e-06,0.0,0 STARLINK-4748,1 53823U 22114F   24185.25521961  .00000689  00000-0  61378-4 0  9994,2 53823  53.2161 137.4083 0001228  91.7573 268.3560 15.08844331100167,6917.867,95.437,540.582,538.883,0.0
53823.0,STARLINK-4748,PAYLOAD,2024-07-03 14:04:26,15.0884779,0.0001399,53.2165,135.9228,88.6173,271.4979,8.4644e-05,1.06e-05,0.0,0 STARLINK-4748,1 53823U 22114F   24185.58641698  .00001060  00000-0  84644-4 0  9995,2 53823  53.2165 135.9228 0001399  88.6173 271.4979 15.08847790100751,6917.857,95.437,540.689,538.754,0.0
53823.0,STARLINK-4748,PAYLOAD,2024-07-04 13:55:13,15.08852443,0.0001398,53.2156,131.4599,87.8216,272.2936,8.0475e-05,9.93e-06,0.0,0 STARLINK-4748,1 53823U 22114F   24186.58001228  .00000993  00000-0  80475-4 0  9997,2 53823  53.2156 131.4599 0001398  87.8216 272.2936 15.08852443100901,6917.842,95.437,540.674,538.74,0.0
53823.0,STARLINK-4748,PAYLOAD,2024-07-05 02:38:18,15.08841764,0.0001447,53.2157,129.0815,91.7115,268.4043,1.4821e-05,-5.2e-07,0.0,0 STARLINK-4748,1 53823U 22114F   24187.10994070 -.00000052  00000-0  14821-4 0  9991,2 53823  53.2157 129.0815 0001447  91.7115 268.4043 15.08841764100442,6917.875,95.437,540.741,538.739,0.0
53823.0,STARLINK-4748,PAYLOAD,2024-07-05 13:46:00,15.08847274,0.0001638,53.216,127.0,93.1461,266.9719,4.7482e-05,4.68e-06,0.0,0 STARLINK-4748,1 53823U 22114F   24187.57361546  .00000468  00000-0  47482-4 0  9997,2 53823  53.2160 127.0000 0001638  93.1461 266.9719 15.08847274101055,6917.858,95.437,540.856,538.59,0.0
53823.0,STARLINK-4748,PAYLOAD,2024-07-06 02:29:06,15.0883715,0.0001616,53.217,124.6222,101.0332,259.0842,-1.7583e-05,-5.68e-06,0.0,0 STARLINK-4748,1 53823U 22114F   24188.10354496 -.00000568  00000-0 -17583-4 0  9995,2 53823  53.2170 124.6222 0001616 101.0332 259.0842 15.08837150100597,6917.889,95.438,540.872,538.636,0.0
53823.0,STARLINK-4748,PAYLOAD,2024-07-06 05:39:52,15.08839384,0.0001596,53.2169,124.0262,106.1809,253.9359,-9.4146e-06,-4.38e-06,0.0,0 STARLINK-4748,1 53823U 22114F   24188.23602272 -.00000438  00000-0 -94146-5 0  9994,2 53823  53.2169 124.0262 0001596 106.1809 253.9359 15.08839384101155,6917.882,95.438,540.851,538.643,0.0
53823.0,STARLINK-4748,PAYLOAD,2024-07-07 02:19:54,15.08829664,0.0001422,53.2166,120.1614,90.9693,269.1462,-5.6593e-05,-1.188e-05,0.0,0 STARLINK-4748,1 53823U 22114F   24189.09715346 -.00001188  00000-0 -56593-4 0  9992,2 53823  53.2166 120.1614 0001422  90.9693 269.1462 15.08829664100747,6917.912,95.438,540.761,538.793,0.0
53823.0,STARLINK-4748,PAYLOAD,2024-07-07 05:30:40,15.08829544,0.0001392,53.2165,119.5666,89.9879,270.1273,-5.5739e-05,-1.175e-05,0.0,0 STARLINK-4748,1 53823U 22114F   24189.22963420 -.00001175  00000-0 -55739-4 0  9992,2 53823  53.2165 119.5666 0001392  89.9879 270.1273 15.08829544101307,6917.912,95.438,540.74,538.814,0.0
53823.0,STARLINK-4748,PAYLOAD,2024-07-08 02:10:41,15.08804992,0.0001228,53.2166,115.7015,100.5743,259.5388,0.00045835,7.007e-05,0.0,0 STARLINK-4748,1 53823U 22114F   24190.09076126  .00007007  00000-0  45835-3 0  9990,2 53823  53.2166 115.7015 0001228 100.5743 259.5388 15.08804992100893,6917.987,95.44,540.702,539.003,0.0
53823.0,STARLINK-4748,PAYLOAD,2024-07-08 11:42:59,15.08841835,0.0001316,53.2173,113.9168,89.9949,270.1194,9.086e-05,1.159e-05,0.0,0 STARLINK-4748,1 53823U 22114F   24190.48818546  .00001159  00000-0  90860-4 0  9994,2 53823  53.2173 113.9168 0001316  89.9949 270.1194 15.08841835100954,6917.875,95.437,540.65,538.829,0.0
